CORVUS BC4              
1 43767U 18099K   22238.49796556  .00000377  00000+0  38692-4 0  9990
2 43767  97.6111 301.8310 0012239  38.4176 321.7914 14.95948894203447
MOVE-II                 
1 43780U 18099Y   22238.42200652  .00001257  00000+0  11070-3 0  9993
2 43780  97.6210 304.2516 0013885  41.1624 319.0643 14.98173496203534
SPACEBEE-7              
1 43816U 18099BL  22238.14777341  .00001569  00000+0  13754-3 0  9993
2 43816  97.6235 304.7124 0013559  28.8123 331.3845 14.98002638203085
SPACEBEE-5              
1 43817U 18099BM  22238.43256772  .00002959  00000+0  22966-3 0  9995
2 43817  97.6279 308.3506 0006344  35.6277 324.5370 15.02101191203276
SPACEBEE-6              
1 43818U 18099BN  22238.45363276  .00001850  00000+0  15665-3 0  9993
2 43818  97.6249 306.0308 0011674  22.0875 338.0849 14.99168895203321
SHIELDS 1               
1 43850U 18104B   22238.44409438  .00001811  00000+0  72964-4 0  9999
2 43850  85.0314   5.7565 0014352  16.8946 343.2772 15.23982757205161
STF-1                   
1 43852U 18104D   22238.37901209  .00004621  00000+0  16866-3 0  9996
2 43852  85.0338   5.8962 0013105  28.1035 332.0915 15.27756656205213
ZACUBE-2                
1 43907U 18111AH  22238.62871329  .00003466  00000+0  12640-3 0  9994
2 43907  97.1810 122.4443 0019162 184.4141 206.1978 15.28640047204010
LUME 1                  
1 43908U 18111AJ  22238.44716813  .00004204  00000+0  14021-3 0  9997
2 43908  97.1814 124.0712 0018042 177.4091 182.7248 15.31456909204109
AOBA VELOX-IV           
1 43940U 19003J   22238.37863298  .00011176  00000+0  27575-3 0  9990
2 43940  97.1210 272.2992 0014592 246.2000 113.7717 15.40580419200882
MOVE-IIB                
1 44398U 19038N   22238.56967339  .00005999  00000+0  28137-3 0  9999
2 44398  97.6356 208.6282 0019022 241.7097 118.2211 15.19898012173683
SONATE                  
1 44400U 19038Q   22238.60500053  .00002345  00000+0  12812-3 0  9999
2 44400  97.6451 207.4681 0021418 248.9265 110.9665 15.15148496173559
LUCKY-7                 
1 44406U 19038W   22238.36071056  .00002106  00000+0  11223-3 0  9994
2 44406  97.6439 207.8127 0020619 247.4967 112.4082 15.16168729173557
BEESAT 9                
1 44412U 19038AC  22238.42189258  .00003198  00000+0  16139-3 0  9995
2 44412  97.6407 208.2830 0017940 250.1485 109.7815 15.17743060173308
JAISAT-1                
1 44419U 19038F   22238.45169360  .00003347  00000+0  16655-3 0  9996
2 44419  97.6411 209.2044 0016967 246.6990 113.2458 15.18216863173677
DUCHIFAT-3              
1 44854U 19089C   22238.48090514  .00002186  00000+0  17208-3 0  9997
2 44854  36.9660  45.0697 0007505  59.0737 330.7990 15.01446404148469
EYESAT-NANO             
1 44877U 19092E   22238.48161145  .00004484  00000+0  18966-3 0  9990
2 44877  97.4644  62.4203 0012508 108.9816 251.2777 15.23657736149024
ORBITAL FACTORY 2 (OF-2)
1 45113U 19071C   22237.29769802  .00014528  00000+0  27613-3 0  9992
2 45113  51.6375  79.8547 0008847  71.2194 288.9753 15.48469510144031
M2 PATHFINDER           
1 45727U 20037E   22238.36432492  .00000602  00000+0  64564-4 0  9993
2 45727  97.7398  52.5729 0013164 159.2961 200.8796 14.92169203117253
NETSAT-4                
1 46504U 20068U   22238.45252860  .00002156  00000+0  16145-3 0  9997
2 46504  97.7268 178.1303 0013383  85.1444 275.1303 15.03723049104568
NETSAT-3                
1 46505U 20068V   22238.40333285  .00000798  00000+0  62753-4 0  9991
2 46505  97.7275 177.9920 0012921  95.2412 265.0279 15.03672847104562
NETSAT-1                
1 46506U 20068W   22238.42233269  .00001276  00000+0  97694-4 0  9999
2 46506  97.7275 177.9350 0011785 106.1438 254.1085 15.03625713104561
NETSAT-2                
1 46507U 20068X   22238.49934168  .00001693  00000+0  12827-3 0  9990
2 46507  97.7269 178.0012 0010606 111.5972 248.6350 15.03609929104526
SAI-1 NANOCONNECT-2     
1 47701U 21015C   22238.24734515  .00005065  00000+0  18493-3 0  9999
2 47701  97.4204 314.8854 0010601 199.5863 160.4971 15.28531022 82871
BEESAT-6                
1 47957U 21022AB  22238.50401912  .00003007  00000+0  19174-3 0  9992
2 47957  97.5193 136.7478 0018811 266.9187 220.3359 15.09334692 78362
SMOG-1                  
1 47964U 21022AJ  22238.46570520  .00003103  00000+0  19039-3 0  9994
2 47964  97.5226 137.9062 0016355 254.3503 105.5922 15.10763313 77450
MMSATS-1                
1 47976U 98067SJ  22238.40675906  .00015212  00000+0  17695-3 0  9998
2 47976  51.6419 332.8810 0001267 311.9060 167.0349 15.61932221 81182
BCCSAT-1                
1 48041U 21022AK  22238.29259608  .00002002  00000+0  12747-3 0  9999
2 48041  97.5227 137.2705 0013085 253.0265 106.9530 15.09850762 77377
BEESAT-5                
1 48083U 21022AM  22238.55465544  .00003410  00000+0  21588-3 0  9999
2 48083  97.5184 136.8063 0018149 267.4822 214.5992 15.09518868 77502
BEESAT-7                
1 48084U 21022AN  22238.49634348  .00002861  00000+0  18234-3 0  9996
2 48084  97.5216 136.7541 0018036 267.0912 218.2082 15.09401608 77087
BEESAT-8                
1 48085U 21022AP  22237.95738748  .00002939  00000+0  18779-3 0  9996
2 48085  97.5181 136.2162 0018073 269.0137 146.4262 15.09290203 77567
RAMSAT                  
1 48850U 98067SL  22238.41469987  .00081501  00000+0  38162-3 0  9997
2 48850  51.6360 317.3385 0006294 350.3672   9.7209 15.82491931 68368
BD-28                   
1 48867U 98067SN  22238.40528721  .00222084  30531-4  54069-3 0  9990
2 48867  51.6239 311.0784 0009450   0.1923 359.9087 15.95722474 67198
BINAR-1                 
1 49272U 98067SR  22238.45000053  .00121039  00000+0  48691-3 0  9994
2 49272  51.6300 320.5050 0005675 338.3245  21.7518 15.85536510 50713
CUAVA-1                 
1 49275U 98067SU  22238.22667666  .00950122  57847-3  72642-3 0  9992
2 49275  51.6204 313.3731 0011900 345.4357 110.1336 16.14336824 50738
HSU-SAT1                
1 53462U 98067UB  22238.38404065  .00016788  00000+0  28480-3 0  9991
2 53462  51.6423 348.7084 0006479 186.4547 173.6361 15.51601768  2186
FUTABA                  
1 53463U 98067UC  22238.38312817  .00019781  00000+0  33221-3 0  9990
2 53463  51.6424 348.7029 0006364 187.8563 172.2328 15.51759298  2183
TUMNANOSAT              
1 53464U 98067UD  22238.38217473  .00022588  00000+0  37598-3 0  9993
2 53464  51.6423 348.6963 0006428 189.0737 171.0137 15.51918794  2180
